NORAD_CAT_ID,OBJECT_NAME,OBJECT_TYPE,EPOCH,MEAN_MOTION,ECCENTRICITY,INCLINATION,RA_OF_ASC_NODE,ARG_OF_PERICENTER,MEAN_ANOMALY,BSTAR,MEAN_MOTION_DOT,MEAN_MOTION_DDOT,TLE_LINE0,TLE_LINE1,TLE_LINE2,SEMIMAJOR_AXIS,PERIOD,APOGEE,PERIGEE,DECAYED
54801.0,STARLINK-5429,PAYLOAD,2023-05-15 20:07:19,15.0884627,0.0001119,53.2177,342.3735,89.645,270.467,5.5249e-05,5.92e-06,0.0,0 STARLINK-5429,1 54801U 22175AV  23135.83842089  .00000592  00000-0  55249-4 0  9996,2 54801  53.2177 342.3735 0001119  89.6450 270.4670 15.08846270 24605,6917.861,95.437,540.5,538.952,0.0
54801.0,STARLINK-5429,PAYLOAD,2023-05-16 13:36:34,15.08837558,0.0001353,53.2176,339.1024,77.911,282.2034,8.4902e-05,1.063e-05,0.0,0 STARLINK-5429,1 54801U 22175AV  23136.56706616  .00001063  00000-0  84902-4 0  9994,2 54801  53.2176 339.1024 0001353  77.9110 282.2034 15.08837558 24718,6917.888,95.438,540.689,538.817,0.0
54801.0,STARLINK-5429,PAYLOAD,2023-05-16 19:58:06,15.08853359,0.0001318,53.2176,337.9122,87.0991,273.0152,-6.1576e-05,-1.268e-05,0.0,0 STARLINK-5429,1 54801U 22175AV  23136.83201852 -.00001268  00000-0 -61576-4 0  9997,2 54801  53.2176 337.9122 0001318  87.0991 273.0152 15.08853359 24753,6917.84,95.437,540.616,538.793,0.0
54801.0,STARLINK-5429,PAYLOAD,2023-05-17 02:19:38,15.08850031,0.0001121,53.2178,336.7227,85.7356,274.3764,0.00010827,1.436e-05,0.0,0 STARLINK-5429,1 54801U 22175AV  23137.09697548  .00001436  00000-0  10827-3 0  9994,2 54801  53.2178 336.7227 0001121  85.7356 274.3764 15.08850031 22632,6917.85,95.437,540.49,538.939,0.0
54801.0,STARLINK-5429,PAYLOAD,2023-05-17 03:55:03,15.08833386,0.0001249,53.2175,336.4263,78.8181,281.2952,-3.7612e-05,-8.86e-06,0.0,0 STARLINK-5429,1 54801U 22175AV  23137.16322979 -.00000886  00000-0 -37612-4 0  9997,2 54801  53.2175 336.4263 0001249  78.8181 281.2952 15.08833386 22647,6917.901,95.438,540.63,538.902,0.0
54801.0,STARLINK-5429,PAYLOAD,2023-05-17 19:48:53,15.088403,9.71e-05,53.2176,333.4529,87.2322,272.8781,8.5738e-05,1.077e-05,0.0,0 STARLINK-5429,1 54801U 22175AV  23137.82562365  .00001077  00000-0  85738-4 0  9998,2 54801  53.2176 333.4529 0000971  87.2322 272.8781 15.08840300 22743,6917.879,95.438,540.416,539.073,0.0
54801.0,STARLINK-5429,PAYLOAD,2023-05-18 00:35:03,15.08845641,0.0001121,53.2169,332.561,87.9377,272.1743,0.00018015,2.581e-05,0.0,0 STARLINK-5429,1 54801U 22175AV  23138.02434195  .00002581  00000-0  18015-3 0  9994,2 54801  53.2169 332.5610 0001121  87.9377 272.1743 15.08845641 24938,6917.863,95.437,540.504,538.953,0.0
54801.0,STARLINK-5429,PAYLOAD,2023-05-18 19:39:41,15.08837444,0.0001138,53.2168,328.9927,87.7563,272.3559,-1.0462e-06,-3.04e-06,0.0,0 STARLINK-5429,1 54801U 22175AV  23138.81922593 -.00000304  00000-0 -10462-5 0  9998,2 54801  53.2168 328.9927 0001138  87.7563 272.3559 15.08837444 25053,6917.888,95.438,540.54,538.966,0.0
54801.0,STARLINK-5429,PAYLOAD,2023-05-18 22:50:27,15.08842783,0.0001162,53.2168,328.3975,88.1158,271.9967,7.5567e-05,9.15e-06,0.0,0 STARLINK-5429,1 54801U 22175AV  23138.95170339  .00000915  00000-0  75567-4 0  9998,2 54801  53.2168 328.3975 0001162  88.1158 271.9967 15.08842783 22914,6917.872,95.437,540.541,538.933,0.0
54801.0,STARLINK-5429,PAYLOAD,2023-05-19 14:44:18,15.08837286,0.0001181,53.2169,325.4239,91.3248,268.7879,8.6348e-05,1.087e-05,0.0,0 STARLINK-5429,1 54801U 22175AV  23139.61410667  .00001087  00000-0  86348-4 0  9993,2 54801  53.2169 325.4239 0001181  91.3248 268.7879 15.08837286 23013,6917.889,95.438,540.571,538.937,0.0
54801.0,STARLINK-5429,PAYLOAD,2023-05-19 19:30:27,15.08845129,0.0001158,53.2168,324.5322,91.506,268.6065,0.00014301,1.989e-05,0.0,0 STARLINK-5429,1 54801U 22175AV  23139.81282248  .00001989  00000-0  14301-3 0  9997,2 54801  53.2168 324.5322 0001158  91.5060 268.6065 15.08845129 25207,6917.865,95.437,540.531,538.929,0.0
54801.0,STARLINK-5429,PAYLOAD,2023-05-20 19:21:14,15.0885536,9.92e-05,53.2158,320.0736,104.522,255.5882,0.00016642,2.363e-05,0.0,0 STARLINK-5429,1 54801U 22175AV  23140.80641709  .00002363  00000-0  16642-3 0  9996,2 54801  53.2158 320.0736 0000992 104.5220 255.5882 15.08855360 25350,6917.833,95.437,540.385,539.012,0.0
54801.0,STARLINK-5429,PAYLOAD,2023-05-21 04:53:33,15.08846895,9.3e-05,53.2161,318.2908,78.3942,281.7155,0.0001225,1.663e-05,0.0,0 STARLINK-5429,1 54801U 22175AV  23141.20386055  .00001663  00000-0  12250-3 0  9994,2 54801  53.2161 318.2908 0000930  78.3942 281.7155 15.08846895 23259,6917.859,95.437,540.368,539.081,0.0
54801.0,STARLINK-5429,PAYLOAD,2023-05-21 11:15:06,15.08834327,0.000153,53.2151,317.1005,81.3882,278.7283,-5.0891e-05,-1.098e-05,0.0,0 STARLINK-5429,1 54801U 22175AV  23141.46882746 -.00001098  00000-0 -50891-4 0  9998,2 54801  53.2151 317.1005 0001530  81.3882 278.7283 15.08834327 25457,6917.898,95.438,540.821,538.704,0.0
54801.0,STARLINK-5429,PAYLOAD,2023-05-21 16:01:16,15.08822022,9.05e-05,53.2158,316.2077,83.5902,276.5193,-0.00024494,-4.182e-05,0.0,0 STARLINK-5429,1 54801U 22175AV  23141.66755262 -.00004182  00000-0 -24494-3 0  9998,2 54801  53.2158 316.2077 0000905  83.5902 276.5193 15.08822022 23324,6917.935,95.439,540.426,539.174,0.0
54801.0,STARLINK-5429,PAYLOAD,2023-05-21 19:12:02,15.08827154,0.0001005,53.2159,315.6122,80.3765,279.7341,-0.00012693,-2.307e-05,0.0,0 STARLINK-5429,1 54801U 22175AV  23141.80003243 -.00002307  00000-0 -12693-3 0  9994,2 54801  53.2159 315.6122 0001005  80.3765 279.7341 15.08827154 25506,6917.92,95.438,540.48,539.089,0.0
54801.0,STARLINK-5429,PAYLOAD,2023-05-22 11:05:54,15.08845331,9.93e-05,53.2161,312.6375,76.5222,283.5881,0.00077773,0.00012113,0.0,0 STARLINK-5429,1 54801U 22175AV  23142.46243296  .00012113  00000-0  77773-3 0  9995,2 54801  53.2161 312.6375 0000993  76.5222 283.5881 15.08845331 23446,6917.864,95.437,540.416,539.042,0.0
54801.0,STARLINK-5429,PAYLOAD,2023-05-22 17:27:26,15.0885531,0.0001001,53.216,311.4482,69.4734,290.6366,0.0012288,0.00019331,0.0,0 STARLINK-5429,1 54801U 22175AV  23142.72739261  .00019331  00000-0  12288-2 0  9994,2 54801  53.2160 311.4482 0001001  69.4734 290.6366 15.08855310 25640,6917.834,95.437,540.391,539.006,0.0
54801.0,STARLINK-5429,PAYLOAD,2023-05-23 17:18:13,15.0884601,0.0001414,53.2159,306.984,100.6078,259.5073,0.0002669,3.963e-05,0.0,0 STARLINK-5429,1 54801U 22175AV  23143.72099117  .00003963  00000-0  26690-3 0  9991,2 54801  53.2159 306.9840 0001414 100.6078 259.5073 15.08846010 23635,6917.862,95.437,540.705,538.749,0.0
54801.0,STARLINK-5429,PAYLOAD,2023-05-23 20:29:00,15.08842548,0.0001149,53.2166,306.3918,88.9289,271.1835,0.00013,1.782e-05,0.0,0 STARLINK-5429,1 54801U 22175AV  23143.85347227  .00001782  00000-0  13000-3 0  9991,2 54801  53.2166 306.3918 0001149  88.9289 271.1835 15.08842548 25810,6917.873,95.437,540.532,538.943,0.0
54801.0,STARLINK-5429,PAYLOAD,2023-05-24 15:33:37,15.08846127,0.0001337,53.2177,302.8221,90.9861,269.1284,-5.4977e-05,-1.163e-05,0.0,0 STARLINK-5429,1 54801U 22175AV  23144.64835004 -.00001163  00000-0 -54977-4 0  9998,2 54801  53.2177 302.8221 0001337  90.9861 269.1284 15.08846127 23773,6917.862,95.437,540.652,538.802,0.0
54801.0,STARLINK-5429,PAYLOAD,2023-05-25 13:49:01,15.0884335,0.000107,53.2175,298.6593,92.6319,267.4795,0.00014731,2.058e-05,0.0,0 STARLINK-5429,1 54801U 22175AV  23145.57571140  .00002058  00000-0  14731-3 0  9994,2 54801  53.2175 298.6593 0001070  92.6319 267.4795 15.08843350 26075,6917.87,95.437,540.475,538.995,0.0
54801.0,STARLINK-5429,PAYLOAD,2023-05-25 16:59:47,15.08845463,0.0001069,53.2173,298.0647,91.4196,268.6918,0.00016168,2.287e-05,0.0,0 STARLINK-5429,1 54801U 22175AV  23145.70819007  .00002287  00000-0  16168-3 0  9996,2 54801  53.2173 298.0647 0001069  91.4196 268.6918 15.08845463 23934,6917.864,95.437,540.468,538.989,0.0
54801.0,STARLINK-5429,PAYLOAD,2023-05-26 13:39:48,15.08840162,0.0001128,53.2175,294.2002,105.9827,254.129,6.7078e-05,7.8e-06,0.0,0 STARLINK-5429,1 54801U 22175AV  23146.56931268  .00000780  00000-0  67078-4 0  9998,2 54801  53.2175 294.2002 0001128 105.9827 254.1290 15.08840162 26226,6917.88,95.438,540.525,538.965,0.0
54801.0,STARLINK-5429,PAYLOAD,2023-05-26 20:01:21,15.08841438,0.0001085,53.2176,293.0106,101.2899,258.8216,6.5045e-05,7.48e-06,0.0,0 STARLINK-5429,1 54801U 22175AV  23146.83427123  .00000748  00000-0  65045-4 0  9994,2 54801  53.2176 293.0106 0001085 101.2899 258.8216 15.08841438 26269,6917.876,95.437,540.492,538.99,0.0
54801.0,STARLINK-5429,PAYLOAD,2023-05-27 08:44:26,15.08832997,0.0001115,53.217,290.6321,98.1776,261.9343,1.1215e-05,-1.09e-06,0.0,0 STARLINK-5429,1 54801U 22175AV  23147.36419897 -.00000109  00000-0  11215-4 0  9994,2 54801  53.2170 290.6321 0001115  98.1776 261.9343 15.08832997 24182,6917.902,95.438,540.538,538.995,0.0
54801.0,STARLINK-5429,PAYLOAD,2023-05-27 16:41:22,15.08837039,9.86e-05,53.2176,289.1475,104.9637,255.1464,2.2685e-05,7.3e-07,0.0,0 STARLINK-5429,1 54801U 22175AV  23147.69539640  .00000073  00000-0  22685-4 0  9991,2 54801  53.2176 289.1475 0000986 104.9637 255.1464 15.08837039 26394,6917.889,95.438,540.437,539.072,0.0
54801.0,STARLINK-5429,PAYLOAD,2023-05-28 02:13:41,15.08837449,9.69e-05,53.2178,287.3632,104.4272,255.6828,6.0633e-05,6.77e-06,0.0,0 STARLINK-5429,1 54801U 22175AV  23148.09283585  .00000677  00000-0  60633-4 0  9995,2 54801  53.2178 287.3632 0000969 104.4272 255.6828 15.08837449 24293,6917.888,95.438,540.424,539.083,0.0
54801.0,STARLINK-5429,PAYLOAD,2023-05-28 16:32:08,15.08846462,9.13e-05,53.2173,284.6868,91.4251,268.6846,0.00012992,1.781e-05,0.0,0 STARLINK-5429,1 54801U 22175AV  23148.68899001  .00001781  00000-0  12992-3 0  9997,2 54801  53.2173 284.6868 0000913  91.4251 268.6846 15.08846462 24389,6917.861,95.437,540.357,539.094,0.0
54801.0,STARLINK-5429,PAYLOAD,2023-05-29 08:26:00,15.08837177,8.44e-05,53.217,281.7133,92.5271,267.5817,0.00012057,1.632e-05,0.0,0 STARLINK-5429,1 54801U 22175AV  23149.35139627  .00001632  00000-0  12057-3 0  9990,2 54801  53.2170 281.7133 0000844  92.5271 267.5817 15.08837177 24486,6917.889,95.438,540.338,539.17,0.0
